[
    {
        "Altitude(m)": 556769.5198250606,
        "Argument of Periapsis(deg)": 0.019868973332140504,
        "Eccentricity": 0.0,
        "Inclination(deg)": 53.0,
        "Latitude(deg)": 39.198219997212654,
        "Longitude(deg)": -169.70533831721053,
        "Mean Anomaly(deg)": 52.09297860273276,
        "RAAN(deg)": 254.9704301055841,
        "Satellite Name": "Starlink Shell 1 1123",
        "Satellite Number": 1123,
        "Semi-Major Axis(m)": 6931778.249405717,
        "Time(s)": 570
    },
    {
        "Altitude(m)": 556852.8158998372,
        "Argument of Periapsis(deg)": 0.02021755181165174,
        "Eccentricity": 0.0,
        "Inclination(deg)": 53.0,
        "Latitude(deg)": 39.59388631640617,
        "Longitude(deg)": -169.11759434416973,
        "Mean Anomaly(deg)": 52.719809806289454,
        "RAAN(deg)": 254.9699113355066,
        "Satellite Name": "Starlink Shell 1 1123",
        "Satellite Number": 1123,
        "Semi-Major Axis(m)": 6931778.249405717,
        "Time(s)": 580
    },
    {
        "Altitude(m)": 556935.9346602823,
        "Argument of Periapsis(deg)": 0.020566130291162974,
        "Eccentricity": 0.0,
        "Inclination(deg)": 53.0,
        "Latitude(deg)": 39.986081785623774,
        "Longitude(deg)": -168.52269142408468,
        "Mean Anomaly(deg)": 53.3466410098462,
        "RAAN(deg)": 254.96939256542913,
        "Satellite Name": "Starlink Shell 1 1123",
        "Satellite Number": 1123,
        "Semi-Major Axis(m)": 6931778.249405717,
        "Time(s)": 590
    },
    {
        "Altitude(m)": 557018.8221406407,
        "Argument of Periapsis(deg)": 0.020914708770674213,
        "Eccentricity": 0.0,
        "Inclination(deg)": 53.0,
        "Latitude(deg)": 40.374719096530946,
        "Longitude(deg)": -167.9205117098731,
        "Mean Anomaly(deg)": 53.97347221340289,
        "RAAN(deg)": 254.96887379535164,
        "Satellite Name": "Starlink Shell 1 1123",
        "Satellite Number": 1123,
        "Semi-Major Axis(m)": 6931778.249405717,
        "Time(s)": 600
    },
    {
        "Altitude(m)": 557101.4247031914,
        "Argument of Periapsis(deg)": 0.021263287250185448,
        "Eccentricity": 0.0,
        "Inclination(deg)": 53.0,
        "Latitude(deg)": 40.759709102842045,
        "Longitude(deg)": -167.31093847287153,
        "Mean Anomaly(deg)": 54.60030341695964,
        "RAAN(deg)": 254.96835502527418,
        "Satellite Name": "Starlink Shell 1 1123",
        "Satellite Number": 1123,
        "Semi-Major Axis(m)": 6931778.249405717,
        "Time(s)": 610
    },
    {
        "Altitude(m)": 557183.6890654693,
        "Argument of Periapsis(deg)": 0.021611865729696686,
        "Eccentricity": 0.0,
        "Inclination(deg)": 53.0,
        "Latitude(deg)": 41.14096080919244,
        "Longitude(deg)": -166.6938558458513,
        "Mean Anomaly(deg)": 55.22713462051634,
        "RAAN(deg)": 254.96783625519672,
        "Satellite Name": "Starlink Shell 1 1123",
        "Satellite Number": 1123,
        "Semi-Major Axis(m)": 6931778.249405717,
        "Time(s)": 620
    },
    {
        "Altitude(m)": 557265.5623272298,
        "Argument of Periapsis(deg)": 0.02196044420920792,
        "Eccentricity": 0.0,
        "Inclination(deg)": 53.0,
        "Latitude(deg)": 41.5183813633068,
        "Longitude(deg)": -166.06915026369532,
        "Mean Anomaly(deg)": 55.853965824073036,
        "RAAN(deg)": 254.96731748511922,
        "Satellite Name": "Starlink Shell 1 1123",
        "Satellite Number": 1123,
        "Semi-Major Axis(m)": 6931778.249405717,
        "Time(s)": 630
    },
    {
        "Altitude(m)": 557346.9919972189,
        "Argument of Periapsis(deg)": 0.02230902268871916,
        "Eccentricity": 0.0,
        "Inclination(deg)": 53.0,
        "Latitude(deg)": 41.89187605177537,
        "Longitude(deg)": -165.4367093997974,
        "Mean Anomaly(deg)": 56.480797027629784,
        "RAAN(deg)": 254.96679871504173,
        "Satellite Name": "Starlink Shell 1 1123",
        "Satellite Number": 1123,
        "Semi-Major Axis(m)": 6931778.249405717,
        "Time(s)": 640
    },
    {
        "Altitude(m)": 557427.9260196864,
        "Argument of Periapsis(deg)": 0.022657601168230398,
        "Eccentricity": 0.0,
        "Inclination(deg)": 53.0,
        "Latitude(deg)": 42.26134829978198,
        "Longitude(deg)": -164.79642364153707,
        "Mean Anomaly(deg)": 57.107628231186474,
        "RAAN(deg)": 254.96627994496433,
        "Satellite Name": "Starlink Shell 1 1123",
        "Satellite Number": 1123,
        "Semi-Major Axis(m)": 6931778.249405717,
        "Time(s)": 650
    },
    {
        "Altitude(m)": 557508.3128006461,
        "Argument of Periapsis(deg)": 0.023006179647741636,
        "Eccentricity": 0.0,
        "Inclination(deg)": 53.0,
        "Latitude(deg)": 42.626699675127654,
        "Longitude(deg)": -164.1481859027811,
        "Mean Anomaly(deg)": 57.73445943474322,
        "RAAN(deg)": 254.96576117488684,
        "Satellite Name": "Starlink Shell 1 1123",
        "Satellite Number": 1123,
        "Semi-Major Axis(m)": 6931778.249405717,
        "Time(s)": 660
    },
    {
        "Altitude(m)": 557588.1012338724,
        "Argument of Periapsis(deg)": 0.023354758127252868,
        "Eccentricity": 0.0,
        "Inclination(deg)": 53.0,
        "Latitude(deg)": 42.987829896917354,
        "Longitude(deg)": -163.49189145469532,
        "Mean Anomaly(deg)": 58.36129063829992,
        "RAAN(deg)": 254.96524240480932,
        "Satellite Name": "Starlink Shell 1 1123",
        "Satellite Number": 1123,
        "Semi-Major Axis(m)": 6931778.249405717,
        "Time(s)": 670
    },
    {
        "Altitude(m)": 557667.2407266169,
        "Argument of Periapsis(deg)": 0.023703336606764106,
        "Eccentricity": 0.0,
        "Inclination(deg)": 53.0,
        "Latitude(deg)": 43.34463684929222,
        "Longitude(deg)": -162.82743928796583,
        "Mean Anomaly(deg)": 58.98812184185662,
        "RAAN(deg)": 254.96472363473188,
        "Satellite Name": "Starlink Shell 1 1123",
        "Satellite Number": 1123,
        "Semi-Major Axis(m)": 6931778.249405717,
        "Time(s)": 680
    },
    {
        "Altitude(m)": 557745.6812250448,
        "Argument of Periapsis(deg)": 0.024051915086275345,
        "Eccentricity": 0.0,
        "Inclination(deg)": 53.0,
        "Latitude(deg)": 43.697016600593784,
        "Longitude(deg)": -162.15473198081875,
        "Mean Anomaly(deg)": 59.61495304541335,
        "RAAN(deg)": 254.96420486465442,
        "Satellite Name": "Starlink Shell 1 1123",
        "Satellite Number": 1123,
        "Semi-Major Axis(m)": 6931778.249405717,
        "Time(s)": 690
    },
    {
        "Altitude(m)": 557823.3732393578,
        "Argument of Periapsis(deg)": 0.024400493565786583,
        "Eccentricity": 0.0,
        "Inclination(deg)": 53.0,
        "Latitude(deg)": 44.044863428365055,
        "Longitude(deg)": -161.47367558573643,
        "Mean Anomaly(deg)": 60.24178424897005,
        "RAAN(deg)": 254.96368609457693,
        "Satellite Name": "Starlink Shell 1 1123",
        "Satellite Number": 1123,
        "Semi-Major Axis(m)": 6931778.249405717,
        "Time(s)": 700
    },
    {
        "Altitude(m)": 557900.2678686151,
        "Argument of Periapsis(deg)": 0.024749072045297815,
        "Eccentricity": 0.0,
        "Inclination(deg)": 53.0,
        "Latitude(deg)": 44.388069850606165,
        "Longitude(deg)": -160.7841810476437,
        "Mean Anomaly(deg)": 60.8686154525268,
        "RAAN(deg)": 254.96316732449947,
        "Satellite Name": "Starlink Shell 1 1123",
        "Satellite Number": 1123,
        "Semi-Major Axis(m)": 6931778.249405717,
        "Time(s)": 710
    },
    {
        "Altitude(m)": 557976.3168252202,
        "Argument of Periapsis(deg)": 0.025097650524809053,
        "Eccentricity": 0.0,
        "Inclination(deg)": 53.0,
        "Latitude(deg)": 44.726526663697,
        "Longitude(deg)": -160.08616412758562,
        "Mean Anomaly(deg)": 61.495446656083445,
        "RAAN(deg)": 254.96264855442197,
        "Satellite Name": "Starlink Shell 1 1123",
        "Satellite Number": 1123,
        "Semi-Major Axis(m)": 6931778.249405717,
        "Time(s)": 720
    },
    {
        "Altitude(m)": 558051.4724590811,
        "Argument of Periapsis(deg)": 0.02544622900432029,
        "Eccentricity": 0.0,
        "Inclination(deg)": 53.0,
        "Latitude(deg)": 45.060122987417216,
        "Longitude(deg)": -159.37954534437844,
        "Mean Anomaly(deg)": 62.12227785964019,
        "RAAN(deg)": 254.96212978434448,
        "Satellite Name": "Starlink Shell 1 1123",
        "Satellite Number": 1123,
        "Semi-Major Axis(m)": 6931778.249405717,
        "Time(s)": 730
    },
    {
        "Altitude(m)": 558125.6877814314,
        "Argument of Periapsis(deg)": 0.02579480748383153,
        "Eccentricity": 0.0,
        "Inclination(deg)": 53.0,
        "Latitude(deg)": 45.38874631749314,
        "Longitude(deg)": -158.66425144654872,
        "Mean Anomaly(deg)": 62.74910906319693,
        "RAAN(deg)": 254.96161101426705,
        "Satellite Name": "Starlink Shell 1 1123",
        "Satellite Number": 1123,
        "Semi-Major Axis(m)": 6931778.249405717,
        "Time(s)": 740
    },
    {
        "Altitude(m)": 558198.9164882783,
        "Argument of Periapsis(deg)": 0.026143385963342765,
        "Eccentricity": 0.0,
        "Inclination(deg)": 53.0,
        "Latitude(deg)": 45.712282586093416,
        "Longitude(deg)": -157.940215388071,
        "Mean Anomaly(deg)": 63.37594026675363,
        "RAAN(deg)": 254.96109224418956,
        "Satellite Name": "Starlink Shell 1 1123",
        "Satellite Number": 1123,
        "Semi-Major Axis(m)": 6931778.249405717,
        "Time(s)": 750
    }
]